{"fetched_at":"2026-07-15T17:47:30.556Z","source":"https://celestrak.org/NORAD/elements/gp.php?NAME=SENTINEL&FORMAT=JSON","constellation":"sentinel-1","records":[{"OBJECT_NAME":"SENTINEL-1A","OBJECT_ID":"2014-016A","EPOCH":"2026-07-15T03:20:01.181184","CLASSIFICATION_TYPE":"U","MEAN_MOTION":14.59196274,"ECCENTRICITY":0.000143,"INCLINATION":98.1768,"RA_OF_ASC_NODE":203.2637,"ARG_OF_PERICENTER":86.6403,"MEAN_ANOMALY":273.4961,"EPHEMERIS_TYPE":0,"NORAD_CAT_ID":39634,"ELEMENT_SET_NO":999,"REV_AT_EPOCH":65409,"BSTAR":0.000050635,"MEAN_MOTION_DOT":0.00000193,"MEAN_MOTION_DDOT":0},{"OBJECT_NAME":"SENTINEL-1C","OBJECT_ID":"2024-235A","EPOCH":"2026-07-15T04:16:45.791328","CLASSIFICATION_TYPE":"U","MEAN_MOTION":14.59197835,"ECCENTRICITY":0.0001379,"INCLINATION":98.1824,"RA_OF_ASC_NODE":203.089,"ARG_OF_PERICENTER":90.723,"MEAN_ANOMALY":269.4128,"EPHEMERIS_TYPE":0,"NORAD_CAT_ID":62261,"ELEMENT_SET_NO":999,"REV_AT_EPOCH":8549,"BSTAR":0.000028796,"MEAN_MOTION_DOT":9e-7,"MEAN_MOTION_DDOT":0},{"OBJECT_NAME":"SENTINEL-1D","OBJECT_ID":"2025-251A","EPOCH":"2026-07-15T00:10:07.527648","CLASSIFICATION_TYPE":"U","MEAN_MOTION":14.59197134,"ECCENTRICITY":0.0001322,"INCLINATION":98.1841,"RA_OF_ASC_NODE":202.9754,"ARG_OF_PERICENTER":88.5338,"MEAN_ANOMALY":271.6014,"EPHEMERIS_TYPE":0,"NORAD_CAT_ID":66315,"ELEMENT_SET_NO":999,"REV_AT_EPOCH":3678,"BSTAR":-0.0000069733,"MEAN_MOTION_DOT":-7.9e-7,"MEAN_MOTION_DDOT":0}]}
