SENTINEL-1A             
1 39634U 14016A   26196.13890256  .00000193  00000+0  50635-4 0  9990
2 39634  98.1768 203.2637 0001430  86.6403 273.4961 14.59196274654098
SENTINEL-1C             
1 62261U 24235A   26196.17830777  .00000090  00000+0  28796-4 0  9991
2 62261  98.1824 203.0890 0001379  90.7230 269.4128 14.59197835 85494
SENTINEL-1D             
1 66315U 25251A   26196.00703157 -.00000079  00000+0 -69733-5 0  9993
2 66315  98.1841 202.9754 0001322  88.5338 271.6014 14.59197134 36785
